COMMENT,ORIGINATOR,NORAD_CAT_ID,OBJECT_NAME,OBJECT_TYPE,CLASSIFICATION_TYPE,INTLDES,EPOCH,EPOCH_MICROSECONDS,MEAN_MOTION,ECCENTRICITY,INCLINATION,RA_OF_ASC_NODE,ARG_OF_PERICENTER,MEAN_ANOMALY,EPHEMERIS_TYPE,ELEMENT_SET_NO,REV_AT_EPOCH,BSTAR,MEAN_MOTION_DOT,MEAN_MOTION_DDOT,FILE,TLE_LINE0,TLE_LINE1,TLE_LINE2,OBJECT_ID,OBJECT_NUMBER,SEMIMAJOR_AXIS,PERIOD,APOGEE,PERIGEE,DECAYED
GENERATED VIA SPACETRACK.ORG API,18 SPCS,51976,STARLINK-3663,PAYLOAD,U,22025W,2024-04-11 11:47:03,899040,15.08839856,0.0001673,53.2179,288.7933,86.3585,273.7599,0,999,11692,7.4905e-05,9.04e-06,0.0,4275033,0 STARLINK-3663,1 51976U 22025W   24102.49101735  .00000904  00000-0  74905-4 0  9990,2 51976  53.2179 288.7933 0001673  86.3585 273.7599 15.08839856116923,2022-025W,51976,6917.881,95.438,540.903,538.588,0
GENERATED VIA SPACETRACK.ORG API,18 SPCS,51976,STARLINK-3663,PAYLOAD,U,22025W,2024-04-11 11:47:03,899040,15.08839856,0.0001673,53.2179,288.7933,86.3585,273.7599,0,999,11581,7.4905e-05,9.04e-06,0.0,4275078,0 STARLINK-3663,1 51976U 22025W   24102.49101735  .00000904  00000-0  74905-4 0  9990,2 51976  53.2179 288.7933 0001673  86.3585 273.7599 15.08839856115810,2022-025W,51976,6917.881,95.438,540.903,538.588,0
GENERATED VIA SPACETRACK.ORG API,18 SPCS,51976,STARLINK-3663,PAYLOAD,U,22025W,2024-04-11 19:44:00,369600,15.08834098,0.0001028,53.2154,287.3049,76.2045,283.9062,0,999,11697,-8.2216e-05,-1.596e-05,0.0,4275595,0 STARLINK-3663,1 51976U 22025W   24102.82222650 -.00001596  00000-0 -82216-4 0  9991,2 51976  53.2154 287.3049 0001028  76.2045 283.9062 15.08834098116978,2022-025W,51976,6917.898,95.438,540.475,539.052,0
GENERATED VIA SPACETRACK.ORG API,18 SPCS,51976,STARLINK-3663,PAYLOAD,U,22025W,2024-04-11 19:44:00,369600,15.08834098,0.0001028,53.2154,287.3049,76.2045,283.9062,0,999,11586,-8.2216e-05,-1.596e-05,0.0,4275619,0 STARLINK-3663,1 51976U 22025W   24102.82222650 -.00001596  00000-0 -82216-4 0  9991,2 51976  53.2154 287.3049 0001028  76.2045 283.9062 15.08834098115865,2022-025W,51976,6917.898,95.438,540.475,539.052,0
GENERATED VIA SPACETRACK.ORG API,18 SPCS,51976,STARLINK-3663,PAYLOAD,U,22025W,2024-04-12 11:37:51,856608,15.08835711,0.0001256,53.2145,284.3304,80.6845,279.4289,0,999,11596,-8.3644e-05,-1.619e-05,0.0,4276832,0 STARLINK-3663,1 51976U 22025W   24103.48462797 -.00001619  00000-0 -83644-4 0  9994,2 51976  53.2145 284.3304 0001256  80.6845 279.4289 15.08835711115961,2022-025W,51976,6917.893,95.438,540.627,538.89,0
GENERATED VIA SPACETRACK.ORG API,18 SPCS,51976,STARLINK-3663,PAYLOAD,U,22025W,2024-04-13 17:50:11,804352,15.0883033,0.0001364,53.2163,278.6822,78.7767,281.3379,0,999,11615,0.00014158,1.965e-05,0.0,4278987,0 STARLINK-3663,1 51976U 22025W   24104.74319218  .00001965  00000-0  14158-3 0  9998,2 51976  53.2163 278.6822 0001364  78.7767 281.3379 15.08830330116159,2022-025W,51976,6917.91,95.438,540.719,538.831,0
GENERATED VIA SPACETRACK.ORG API,18 SPCS,51976,STARLINK-3663,PAYLOAD,U,22025W,2024-04-13 17:50:11,804352,15.0883033,0.0001364,53.2163,278.6822,78.7767,281.3379,0,999,11726,0.00014158,1.965e-05,0.0,4279530,0 STARLINK-3663,1 51976U 22025W   24104.74319218  .00001965  00000-0  14158-3 0  9998,2 51976  53.2163 278.6822 0001364  78.7767 281.3379 15.08830330117262,2022-025W,51976,6917.91,95.438,540.719,538.831,0
GENERATED VIA SPACETRACK.ORG API,18 SPCS,51976,STARLINK-3663,PAYLOAD,U,22025W,2024-04-14 11:19:22,801152,15.08873369,0.0001835,53.2156,275.4099,156.4839,203.6237,0,999,11737,0.00030587,4.588e-05,0.0,4280083,0 STARLINK-3663,1 51976U 22025W   24105.47179168  .00004588  00000-0  30587-3 0  9995,2 51976  53.2156 275.4099 0001835 156.4839 203.6237 15.08873369117373,2022-025W,51976,6917.778,95.435,540.913,538.374,0
GENERATED VIA SPACETRACK.ORG API,18 SPCS,51976,STARLINK-3663,PAYLOAD,U,22025W,2024-04-14 17:40:58,891008,15.08843944,0.0001439,53.216,274.2217,73.8868,286.2283,0,999,11741,0.0002841,4.237e-05,0.0,4280567,0 STARLINK-3663,1 51976U 22025W   24105.73679272  .00004237  00000-0  28410-3 0  9998,2 51976  53.2160 274.2217 0001439  73.8868 286.2283 15.08843944117410,2022-025W,51976,6917.868,95.437,540.729,538.738,0
GENERATED VIA SPACETRACK.ORG API,18 SPCS,51976,STARLINK-3663,PAYLOAD,U,22025W,2024-04-14 17:40:58,891008,15.08843944,0.0001439,53.216,274.2217,73.8868,286.2283,0,999,11630,0.0002841,4.237e-05,0.0,4280633,0 STARLINK-3663,1 51976U 22025W   24105.73679272  .00004237  00000-0  28410-3 0  9998,2 51976  53.2160 274.2217 0001439  73.8868 286.2283 15.08843944116307,2022-025W,51976,6917.868,95.437,540.729,538.738,0
GENERATED VIA SPACETRACK.ORG API,18 SPCS,51976,STARLINK-3663,PAYLOAD,U,22025W,2024-04-15 14:20:51,12960,15.08953202,0.0002853,53.2137,270.3899,169.9834,190.1215,0,999,11643,0.0012995,0.00020519,0.0,4281855,0 STARLINK-3663,1 51976U 22025W   24106.59781265  .00020519  00000-0  12995-2 0  9990,2 51976  53.2137 270.3899 0002853 169.9834 190.1215 15.08953202116436,2022-025W,51976,6917.534,95.43,541.373,537.426,0
GENERATED VIA SPACETRACK.ORG API,18 SPCS,51976,STARLINK-3663,PAYLOAD,U,22025W,2024-04-15 20:42:23,493888,15.08938569,0.000215,53.2134,269.227,185.6326,174.4643,0,999,11758,0.0010155,0.00015954,0.0,4282420,0 STARLINK-3663,1 51976U 22025W   24106.86277192  .00015954  00000-0  10155-2 0  9992,2 51976  53.2134 269.2270 0002150 185.6326 174.4643 15.08938569117580,2022-025W,51976,6917.579,95.431,540.931,537.957,0
GENERATED VIA SPACETRACK.ORG API,18 SPCS,51976,STARLINK-3663,PAYLOAD,U,22025W,2024-04-15 20:42:23,493888,15.08938569,0.000215,53.2134,269.227,185.6326,174.4643,0,999,11647,0.0010155,0.00015954,0.0,4282499,0 STARLINK-3663,1 51976U 22025W   24106.86277192  .00015954  00000-0  10155-2 0  9992,2 51976  53.2134 269.2270 0002150 185.6326 174.4643 15.08938569116477,2022-025W,51976,6917.579,95.431,540.931,537.957,0
GENERATED VIA SPACETRACK.ORG API,18 SPCS,51976,STARLINK-3663,PAYLOAD,U,22025W,2024-04-16 01:28:41,149632,15.08852262,0.0001502,53.2158,268.2763,71.942,288.1736,0,999,11761,0.00025368,3.753e-05,0.0,4283912,0 STARLINK-3663,1 51976U 22025W   24107.06158738  .00003753  00000-0  25368-3 0  9996,2 51976  53.2158 268.2763 0001502  71.9420 288.1736 15.08852262117619,2022-025W,51976,6917.843,95.437,540.747,538.669,0
GENERATED VIA SPACETRACK.ORG API,18 SPCS,51976,STARLINK-3663,PAYLOAD,U,22025W,2024-04-16 14:11:46,493376,15.08843548,0.0001413,53.2156,265.8951,88.1716,271.9438,0,999,11658,6.9796e-05,8.23e-06,0.0,4283936,0 STARLINK-3663,1 51976U 22025W   24107.59151034  .00000823  00000-0  69796-4 0  9995,2 51976  53.2156 265.8951 0001413  88.1716 271.9438 15.08843548116589,2022-025W,51976,6917.87,95.437,540.712,538.757,0
GENERATED VIA SPACETRACK.ORG API,18 SPCS,51976,STARLINK-3663,PAYLOAD,U,22025W,2024-04-16 17:22:32,624544,15.08845827,0.0001425,53.2158,265.3014,80.0578,280.0575,0,999,11771,8.5151e-05,1.068e-05,0.0,4284415,0 STARLINK-3663,1 51976U 22025W   24107.72398871  .00001068  00000-0  85151-4 0  9997,2 51976  53.2158 265.3014 0001425  80.0578 280.0575 15.08845827117717,2022-025W,51976,6917.863,95.437,540.713,538.742,0
GENERATED VIA SPACETRACK.ORG API,18 SPCS,51976,STARLINK-3663,PAYLOAD,U,22025W,2024-04-16 17:22:32,624544,15.08845827,0.0001425,53.2158,265.3014,80.0578,280.0575,0,999,11660,8.5151e-05,1.068e-05,0.0,4284483,0 STARLINK-3663,1 51976U 22025W   24107.72398871  .00001068  00000-0  85151-4 0  9997,2 51976  53.2158 265.3014 0001425  80.0578 280.0575 15.08845827116604,2022-025W,51976,6917.863,95.437,540.713,538.742,0
GENERATED VIA SPACETRACK.ORG API,18 SPCS,51976,STARLINK-3663,PAYLOAD,U,22025W,2024-04-17 10:51:47,829888,15.08833154,0.00014,53.2148,262.0281,81.3233,278.7918,0,999,11782,-3.9546e-05,-9.17e-06,0.0,4285749,0 STARLINK-3663,1 51976U 22025W   24108.45263692 -.00000917  00000-0 -39546-4 0  9991,2 51976  53.2148 262.0281 0001400  81.3233 278.7918 15.08833154117828,2022-025W,51976,6917.901,95.438,540.735,538.798,0
GENERATED VIA SPACETRACK.ORG API,18 SPCS,51976,STARLINK-3663,PAYLOAD,U,22025W,2024-04-17 14:02:34,222848,15.08831128,0.0001504,53.2146,261.4358,78.7306,281.3855,0,999,11673,-7.1759e-05,-1.43e-05,0.0,4285817,0 STARLINK-3663,1 51976U 22025W   24108.58511832 -.00001430  00000-0 -71759-4 0  9990,2 51976  53.2146 261.4358 0001504  78.7306 281.3855 15.08831128116738,2022-025W,51976,6917.908,95.438,540.813,538.732,0
GENERATED VIA SPACETRACK.ORG API,18 SPCS,51976,STARLINK-3663,PAYLOAD,U,22025W,2024-04-17 15:37:57,395136,15.08830858,0.0001492,53.2158,261.1388,77.828,282.288,0,999,11674,-7.464e-05,-1.475e-05,0.0,4286350,0 STARLINK-3663,1 51976U 22025W   24108.65135874 -.00001475  00000-0 -74640-4 0  9997,2 51976  53.2158 261.1388 0001492  77.8280 282.2880 15.08830858116746,2022-025W,51976,6917.908,95.438,540.805,538.741,0
GENERATED VIA SPACETRACK.ORG API,18 SPCS,51976,STARLINK-3663,PAYLOAD,U,22025W,2024-04-18 10:42:35,54784,15.08835842,0.000138,53.216,257.5694,81.8528,278.2621,0,999,11686,0.00017186,2.448e-05,0.0,4287604,0 STARLINK-3663,1 51976U 22025W   24109.44623906  .00002448  00000-0  17186-3 0  9993,2 51976  53.2160 257.5694 0001380  81.8528 278.2621 15.08835842116863,2022-025W,51976,6917.893,95.438,540.713,538.803,0
GENERATED VIA SPACETRACK.ORG API,18 SPCS,51976,STARLINK-3663,PAYLOAD,U,22025W,2024-04-18 15:28:43,984128,15.08845325,0.0001382,53.2165,256.6775,97.1171,262.9978,0,999,11800,0.00012924,1.77e-05,0.0,4288118,0 STARLINK-3663,1 51976U 22025W   24109.64495352  .00001770  00000-0  12924-3 0  9999,2 51976  53.2165 256.6775 0001382  97.1171 262.9978 15.08845325118004,2022-025W,51976,6917.864,95.437,540.685,538.773,0
GENERATED VIA SPACETRACK.ORG API,18 SPCS,51976,STARLINK-3663,PAYLOAD,U,22025W,2024-04-18 15:28:43,984128,15.08845325,0.0001382,53.2165,256.6775,97.1171,262.9978,0,999,11689,0.00012924,1.77e-05,0.0,4288150,0 STARLINK-3663,1 51976U 22025W   24109.64495352  .00001770  00000-0  12924-3 0  9999,2 51976  53.2165 256.6775 0001382  97.1171 262.9978 15.08845325116899,2022-025W,51976,6917.864,95.437,540.685,538.773,0
